STARLINK-35899          
1 66497U 25263N   25339.25002315 -.02056693  00000+0 -24309-1 0  9991
2 66497  42.9991 169.0886 0001470 270.1412 224.8606 15.63878688  4434
STARLINK-35907          
1 66498U 25263P   25339.25002315 -.02056150  00000+0 -24305-1 0  9996
2 66498  42.9990 169.0838 0001456 270.8550 226.0703 15.63874760  4434
STARLINK-35816          
1 66499U 25263Q   25339.25002315 -.02047744  00000+0 -24195-1 0  9993
2 66499  42.9991 169.0744 0001420 270.9221 229.8341 15.63872021  4436
STARLINK-35894          
1 66500U 25263R   25339.25002315 -.02523154  00000+0 -33210-1 0  9998
2 66500  42.9991 169.1075 0001309 272.2296 215.3375 15.61322690  4437
STARLINK-35897          
1 66501U 25263S   25339.25002315 -.02240034  00000+0 -26238-1 0  9994
2 66501  42.9992 169.0691 0002019 304.3318 198.6772 15.63832856  4439
STARLINK-35922          
1 66502U 25263T   25339.25002315 -.02050349  00000+0 -24229-1 0  9991
2 66502  42.9992 169.0546 0001380 267.1799 241.2440 15.63873664  4437
STARLINK-35917          
1 66503U 25263U   25339.25002315 -.02059782  00000+0 -24349-1 0  9995
2 66503  42.9994 169.0453 0001450 270.3996 241.8552 15.63880889  4437
STARLINK-35916          
1 66504U 25263V   25339.25002315 -.02057396  00000+0 -43472-1 0  9993
2 66504  42.9997 169.8353 0001392 261.0612 291.3465 15.47809689  4439
STARLINK-34766          
1 66505U 25263W   25339.25002315 -.02058337  00000+0 -24330-1 0  9992
2 66505  42.9990 169.0643 0001377 267.4451 237.1410 15.63880371  4434
STARLINK-34765          
1 66506U 25263X   25339.25002315 -.02059984  00000+0 -24350-1 0  9994
2 66506  42.9991 169.0601 0001438 270.5150 235.9856 15.63882850  4433
STARLINK-34767          
1 66507U 25263Y   25339.25002315 -.02054808  00000+0 -24287-1 0  9994
2 66507  42.9993 169.0493 0001463 270.1362 240.2066 15.63874980  4431
STARLINK-35608          
1 66508U 25263Z   25339.25002315 -.02058451  00000+0 -24332-1 0  9994
2 66508  42.9996 169.0359 0001464 269.6969 246.3933 15.63879236  4432
STARLINK-35598          
1 66509U 25263AA  25339.25002315 -.02051230  00000+0 -24237-1 0  9997
2 66509  42.9994 169.0144 0001385 264.3477 259.4065 15.63877562  4432
STARLINK-35600          
1 66510U 25263AB  25339.25002315 -.02048540  00000+0 -24205-1 0  9994
2 66510  42.9992 169.0291 0001393 268.7567 249.2525 15.63872823  4435
STARLINK-35444          
1 66511U 25263AC  25339.25002315 -.02060490  00000+0 -24359-1 0  9993
2 66511  42.9994 169.0202 0001437 269.2486 252.5932 15.63880221  4435
STARLINK-35366          
1 66512U 25263AD  25339.25002315 -.02065519  00000+0 -24423-1 0  9993
2 66512  42.9993 169.0102 0001386 267.2099 258.4625 15.63885438  4434
STARLINK-35692          
1 66513U 25263AE  25339.25002315 -.02051310  00000+0 -24240-1 0  9995
2 66513  42.9993 169.0244 0001404 266.5254 253.4001 15.63874643  4437
SENTINEL-6B             
1 66514U 25264A   25339.23567833  .00000010  00000+0  29277-3 0  9990
2 66514  66.0392 178.0800 0011549 268.4163  91.5532 12.85877750  2326
STARLINK-35924          
1 66516U 25265A   25339.25002315 -.01891503  00000+0 -16689-1 0  9993
2 66516  43.0000  98.2404 0001358 269.0606 318.0420 15.70704556  3771
STARLINK-35937          
1 66517U 25265B   25339.25002315 -.01890258  00000+0 -16679-1 0  9999
2 66517  42.9999  98.2361 0001198 267.2812 321.7401 15.70703019  3795
STARLINK-35962          
1 66518U 25265C   25339.25002315 -.01822418  00000+0 -16377-1 0  9998
2 66518  42.9999  98.2309 0001569 267.0472 323.9095 15.70674548  3797
STARLINK-35931          
1 66519U 25265D   25339.25002315 -.01884850  00000+0 -16670-1 0  9993
2 66519  43.0000  98.2257 0001615 279.0378 313.9285 15.70635165  3797
STARLINK-35952          
1 66520U 25265E   25339.25002315 -.01888277  00000+0 -16659-1 0  9999
2 66520  42.9999  98.2210 0001298 269.4141 325.3580 15.70701904  3791
STARLINK-35915          
1 66521U 25265F   25339.25002315 -.01893047  00000+0 -16703-1 0  9991
2 66521  42.9999  98.2162 0001300 267.9245 328.7613 15.70706698  3799
STARLINK-35946          
1 66522U 25265G   25339.25002315 -.01891168  00000+0 -16686-1 0  9994
2 66522  42.9998  98.2113 0001301 268.1956 330.4103 15.70703945  3794
STARLINK-35969          
1 66523U 25265H   25339.25002315 -.01889099  00000+0 -16668-1 0  9995
2 66523  43.0001  98.2067 0001203 264.5981 335.9260 15.70702474  3799
STARLINK-35687          
1 66524U 25265J   25339.25002315 -.01888263  00000+0 -16659-1 0  9998
2 66524  42.9999  98.2014 0001281 266.9766 335.4644 15.70701866  3794
STARLINK-35975          
1 66525U 25265K   25339.25002315 -.01887066  00000+0 -16646-1 0  9995
2 66525  42.9999  98.1969 0001386 264.3712 339.9853 15.70702344  3795
STARLINK-35932          
1 66526U 25265L   25339.25002315 -.01889728  00000+0 -16673-1 0  9993
2 66526  42.9999  98.1923 0001323 266.4195 339.8552 15.70703017  3686
STARLINK-35935          
1 66527U 25265M   25339.25002315 -.01893106  00000+0 -16704-1 0  9994
2 66527  43.0000  98.1876 0001246 266.7791 341.4095 15.70706633  3798
STARLINK-35928          
1 66528U 25265N   25339.25002315 -.01887504  00000+0 -16652-1 0  9992
2 66528  43.0000  98.1826 0001293 266.5985 343.5106 15.70701582  3793
STARLINK-35933          
1 66529U 25265P   25339.25002315 -.01883451  00000+0 -16613-1 0  9997
2 66529  42.9999  98.1775 0001326 265.2633 346.7646 15.70698648  3797
STARLINK-35961          
1 66530U 25265Q   25339.25002315 -.01890433  00000+0 -16679-1 0  9999
2 66530  42.9999  98.1730 0001375 268.5771 345.3649 15.70703792  3798
STARLINK-35960          
1 66531U 25265R   25339.25002315 -.01846737  00000+0 -16613-1 0  9996
2 66531  43.0002  98.1678 0001474 266.3877 349.4727 15.70699104  3793
STARLINK-35914          
1 66532U 25265S   25339.25002315 -.01885045  00000+0 -16629-1 0  9999
2 66532  43.0000  98.1634 0001303 267.3493 350.4311 15.70698380  3796
STARLINK-35707          
1 66533U 25265T   25339.25002315 -.01890910  00000+0 -16682-1 0  9996
2 66533  43.0000  98.1586 0001476 266.6248 353.0666 15.70705234  3793
STARLINK-35976          
1 66534U 25265U   25339.25002315 -.01811557  00000+0 -16275-1 0  9995
2 66534  43.0004  98.1540 0001510 276.3039 345.3375 15.70660970  3791
STARLINK-35514          
1 66535U 25265V   25339.25002315 -.01886820  00000+0 -16644-1 0  9991
2 66535  43.0002  98.1495 0001487 270.0189 353.5103 15.70700429  3793
STARLINK-35640          
1 66536U 25265W   25339.25002315 -.01892557  00000+0 -16697-1 0  9994
2 66536  43.0001  98.1446 0001474 267.5366 357.9062 15.70705964  3772
STARLINK-35582          
1 66537U 25265X   25339.25002315 -.01885789  00000+0 -16634-1 0  9995
2 66537  43.0004  98.1396 0001428 268.7517 358.6091 15.70701697  3791
STARLINK-35577          
1 66538U 25265Y   25339.25002315 -.01884545  00000+0 -16622-1 0  9992
2 66538  43.0004  98.1346 0001403 268.3670   0.9118 15.70700409  3793
STARLINK-35697          
1 66539U 25265Z   25339.25002315 -.01887719  00000+0 -16653-1 0  9993
2 66539  43.0004  98.1293 0001336 268.8069   2.3885 15.70702166  3796
STARLINK-35818          
1 66540U 25265AA  25339.25002315 -.01887159  00000+0 -16646-1 0  9995
2 66540  43.0001  98.1250 0001490 270.4346   2.6754 15.70703232  3799
STARLINK-35796          
1 66541U 25265AB  25339.25002315 -.01888950  00000+0 -16663-1 0  9995
2 66541  43.0003  98.1201 0001552 269.0903   5.9389 15.70703047  3794
STARLINK-35833          
1 66542U 25265AC  25339.25002315 -.01892028  00000+0 -16692-1 0  9999
2 66542  43.0002  98.1155 0001455 266.1654  10.7802 15.70705812  3791
STARLINK-35315          
1 66543U 25265AD  25339.25002315 -.01885146  00000+0 -16627-1 0  9991
2 66543  43.0003  98.1102 0001475 268.9361   9.9280 15.70700828  3682
STARLINK-35728          
1 66544U 25265AE  25339.25002315 -.01888202  00000+0 -16657-1 0  9991
2 66544  43.0002  98.1057 0001445 268.4500  12.3302 15.70702966  3798
SHIJIAN-30A             
1 66545U 25266A   25339.56925777  .00018683  00000+0  98803-3 0  9993
2 66545  51.7999   6.4524 0012815 330.9633  29.0629 15.15427871  2497
SHIJIAN-30B             
1 66546U 25266B   25339.57014897  .00021270  00000+0  11204-2 0  9992
2 66546  51.7981   6.4564 0010541 334.0904  25.9544 15.15503607  2496
SHIJIAN-30C             
1 66547U 25266C   25339.57085940  .00018749  00000+0  98905-3 0  9991
2 66547  51.7992   6.4614 0011372 326.1697  33.8553 15.15527434  2491
CZ-2C R/B               
1 66548U 25266D   25339.28636105  .00019701  00000+0  61126-3 0  9999
2 66548  52.0560   6.7834 0084540 147.6878 212.9326 15.29936527  2476
SHIJIAN-28              
1 66549U 25277A   25334.75466579  .00006315  00000+0  62085-3 0  9997
2 66549  14.4344 275.4056 7300519 179.5026 182.3580  2.28019775    48
CZ-7A R/B               
1 66550U 25277B   25335.16492545  .00016399 -71945-7  44604-4 0  9993
2 66550  14.4278 275.3780 7236287 178.5774 186.2906  2.40161271    57
UNKNOWN                 
1 66551U 25271AE  25336.66670139 -.01709685  00000+0 -74303-2 0  9993
2 66551  53.1571 236.7807 0000717 110.7411 313.9012 15.87051116  2624
GLOBAL-33               
1 66554U 25267A   25339.29442590  .00021935  00000+0  71443-3 0  9996
2 66554  42.0193  99.9672 0005225 358.9658   1.1168 15.31371294  2260
ELECTRON KICK STAGE R/B 
1 66555U 25267B   25338.63578493  .00046832  00000+0  14703-2 0  9994
2 66555  42.0175 103.6834 0007279 353.8025   6.2722 15.32232828  2168
STARLINK-35699          
1 66557U 25268A   25339.25002315 -.01984622  00000+0 -19852-1 0  9991
2 66557  42.9996 165.3009 0001575 261.4576 335.1464 15.67855488  3469
STARLINK-35695          
1 66558U 25268B   25339.25002315 -.01987069  00000+0 -19878-1 0  9998
2 66558  42.9995 165.2964 0001625 261.3820 337.1386 15.67856906  3466
STARLINK-35419          
1 66559U 25268C   25339.25002315 -.01992567  00000+0 -19937-1 0  9994
2 66559  42.9996 165.2922 0001586 262.6943 337.7401 15.67862119  3465
